NUSAT-1 (FRESCO)        
1 41557U 16033B   21341.44992495  .00004201  00000+0  14419-3 0  9990
2 41557  97.3937  74.5328 0012003 348.7219  73.8490 15.30640362307989
BEESAT-4                
1 41619U 16040W   21341.10755479  .00003741  00000+0  14462-3 0  9995
2 41619  97.2470  32.2592 0012031  82.4479 277.8127 15.26767064291343
CAS-2T & KS-1Q          
1 41847U 16066G   21341.14780765  .00000189  00000+0  37717-4 0  9998
2 41847  98.5796  40.7991 0365878  64.8279 299.0383 14.38297115266709
NAYIF-1 (EO-88)         
1 42017U 17008BX  21340.77023257  .00003885  00000+0  13804-3 0  9995
2 42017  97.2968  45.2323 0005042 200.7819 159.3217 15.29593976267586
ZHUHAI-1 02 (CAS-4B)    
1 42759U 17034B   21341.37550927  .00001405  00000+0  96757-4 0  9998
2 42759  43.0186 310.1864 0007464 174.9385 345.8447 15.10600243247293
ZHUHAI-1 01 (CAS-4A)    
1 42761U 17034D   21341.41902611  .00001241  00000+0  86812-4 0  9996
2 42761  43.0187 308.8693 0007591 173.4119 327.9140 15.10686082247309
MAX VALIER SAT          
1 42778U 17036P   21341.12358615  .00002307  00000+0  96838-4 0  9996
2 42778  97.2333  23.9361 0009904 289.4133  70.6034 15.24402545247581
RADFXSAT (FOX-1B)       
1 43017U 17073E   21341.44278653  .00000982  00000+0  79287-4 0  9998
2 43017  97.6925 238.4504 0254874  95.6658 267.3674 14.79993588218706
FOX-1D (AO-92)          
1 43137U 18004AC  21341.48432590  .00002637  00000+0  10473-3 0  9992
2 43137  97.3915  53.6814 0007523 330.4957  29.5856 15.26198141217035
DIWATA-2B               
1 43678U 18084H   21340.56720368 -.00000059  00000+0 -55651-7 0  9990
2 43678  97.9460 106.9769 0009259 195.5207 164.5739 14.91842372169098
ES'HAIL 2               
1 43700U 18090A   21340.89591403  .00000147  00000+0  00000+0 0  9991
2 43700   0.0179  14.1540 0001892 264.0360 146.0294  1.00270629 11093
FOX-1CLIFF (AO-95)      
1 43770U 18099N   21341.14924406  .00001001  00000+0  95169-4 0  9994
2 43770  97.6475  47.3682 0014043 194.0113 166.0721 14.95581340164264
ITASAT 1                
1 43786U 18099AE  21341.17000240  .00000169  00000+0  20186-4 0  9996
2 43786  97.6496  48.1863 0014835 187.7035 172.3961 14.95839647164302
JY1SAT (JO-97)          
1 43803U 18099AX  21341.16966970  .00000313  00000+0  32807-4 0  9990
2 43803  97.6457  47.9238 0014766 187.4063 172.6943 14.96140805164319
UWE-4                   
1 43880U 18111E   21340.96991083  .00001014  00000+0  92663-4 0  9995
2 43880  97.6787 245.6622 0010377 243.6012 116.4145 14.97168392158895
NEXUS (FO-99)           
1 43937U 19003F   21341.34424505  .00003052  00000+0  11740-3 0  9992
2 43937  97.1559  17.5058 0024121 116.9375 243.4333 15.26860033160634
PSAT2 (NO-104)          
1 44354U 19036R   21340.89360566  .00019796  00000+0  23799-3 0  9996
2 44354  28.5290  51.8039 0296690 354.8197   4.9365 15.21115173135174
BRICSAT2 (NO-103)       
1 44355U 19036S   21341.29026386  .00052157 -54542-5  41382-3 0  9994
2 44355  28.5244 328.3015 0200607 130.8479 230.9697 15.47361288136042
JAISAT-1                
1 44419U 19038F   21341.45813423  .00002469  00000+0  13685-3 0  9990
2 44419  97.6127 305.8184 0022450  76.5094 283.8637 15.14545223133971
DUCHIFAT-3              
1 44854U 19089C   21341.50847742  .00001155  00000+0  97793-4 0  9990
2 44854  36.9606 156.9971 0006416  93.2136 266.9353 14.99841947109095
CAS-6 (TO-108)          
1 44881U 19093C   21341.50766053  .00000197  00000+0  31879-4 0  9998
2 44881  97.9127  58.3360 0016496  90.2531 270.0572 14.81519548106357
RS-44 & BREEZE-KM R/B   
1 44909U 19096E   21340.78505414  .00000006  00000+0 -25037-4 0  9992
2 44909  82.5215 358.3052 0218268  50.4230 311.5926 12.79711401 90861
ORBITAL FACTORY 2 (OF-2)
1 45113U 19071C   21341.13955420  .00005527  00000+0  15644-3 0  9993
2 45113  51.6418 279.1438 0010836 191.7125 168.3608 15.37840326103723
HUSKYSAT-1 (HO-107)     
1 45119U 19071J   21341.41547114  .00005244  00000+0  14965-3 0  9998
2 45119  51.6416 277.2246 0010446 189.3946 170.6843 15.37703358103768
BY70-2                  
1 45857U 20042B   21341.49731245  .00002385  00000+0  34004-3 0  9994
2 45857  97.9732  55.4043 0010795  24.4988 335.6731 14.77661360 77098
SALSAT                  
1 46495U 20068K   21340.89324559  .00001021  00000+0  78864-4 0  9999
2 46495  97.7081 277.5093 0016164 203.6879 156.3606 15.03707091 65245
BY70-3                  
1 46839U 20079N   21341.45843100  .00006596  00000+0  19351-3 0  9991
2 46839  97.2254  51.8979 0005726 317.2408 141.6014 15.35486026 60738
RADFXSAT-2 (AO-109)     
1 47311U 21002C   21341.45963050  .00001916  00000+0  92581-4 0  9999
2 47311  60.6877   3.1943 0035021 134.7219 225.6730 15.22524864 49210
UVSQ-SAT                
1 47438U 21006AB  21341.15074908  .00001431  00000+0  82986-4 0  9995
2 47438  97.4662  39.1283 0011652 215.5771 144.4685 15.13712732 48175
DIY-1 (ARDUIQUBE)       
1 47963U 21022AH  21341.44035951  .00003302  00000+0  21458-3 0  9998
2 47963  97.5455 240.6851 0020941  73.5929 286.7599 15.08535762 37966
